*******************************************************************************
JPL/HORIZONS                1194 Aletta (1931 JG)          2023-Sep-04 11:10:44
Rec #:    1194 (+COV) Soln.date: 2023-Aug-21_17:49:45   # obs: 3637 (1931-2023)
 
IAU76/J2000 helio. ecliptic osc. elements (au, days, deg., period=Julian yrs):
 
  EPOCH=  2457535.5 ! 2016-May-27.00 (TDB)         Residual RMS= .2339
   EC= .09209872356100514  QR= 2.64439768374575    TP= 2457100.2449718881
   OM= 291.3189848363836   W=  243.0770045124678   IN= 10.87101287203156
   A= 2.912648932621515    MA= 86.30096632960631   ADIST= 3.180900181497281
   PER= 4.97096            N= .198276782           ANGMOM= .029233161
   DAN= 3.01362            DDN= 2.77233            L= 173.9748809
   B= -9.6807111           MOID= 1.67298996        TP= 2015-Mar-18.7449718881
 
Asteroid physical parameters (km, seconds, rotational period in hours):
   GM= n.a.                RAD= 20.679             ROTPER= 20.39
   H= 10.68                G= .150                 B-V= n.a.
                           ALBEDO= .087            STYP= n.a.

ASTEROID comments: 
1: soln ref.= JPL#57, OCC=0
2: source=ORB
*******************************************************************************


*******************************************************************************
Ephemeris / API_USER Mon Sep  4 11:10:45 2023 Pasadena, USA      / Horizons
*******************************************************************************
Target body name: 1194 Aletta (1931 JG)           {source: JPL#57}
Center body name: Solar System Barycenter (0)     {source: DE441}
Center-site name: BODY CENTER
*******************************************************************************
Start time      : A.D. 2023-Aug-12 00:00:00.0000 TDB
Stop  time      : A.D. 2023-Aug-13 00:00:00.0000 TDB
Step-size       : 2880 minutes
*******************************************************************************
Center geodetic : 0.0, 0.0, 0.0                   {E-lon(deg),Lat(deg),Alt(km)}
Center cylindric: 0.0, 0.0, 0.0                   {E-lon(deg),Dxy(km),Dz(km)}
Center radii    : (undefined)
Small perturbers: Yes                             {source: SB441-N16}
Output units    : KM-S
Calendar mode   : Mixed Julian/Gregorian
Output type     : GEOMETRIC cartesian states
Output format   : 2 (position and velocity)
Reference frame : Ecliptic of J2000.0
*******************************************************************************
Initial IAU76/J2000 heliocentric ecliptic osculating elements (au, days, deg.):
  EPOCH=  2457535.5 ! 2016-May-27.00 (TDB)         Residual RMS= .2339         
   EC= .09209872356100514  QR= 2.64439768374575    TP= 2457100.2449718881      
   OM= 291.3189848363836   W=  243.0770045124678   IN= 10.87101287203156       
  Equivalent ICRF heliocentric cartesian coordinates (au, au/d):
   X= 8.032616715951990E-02  Y=-2.597257595094228E+00  Z=-1.332047963940666E+00
  VX= 9.877156406085231E-03 VY=-1.385044219129669E-03 VZ= 1.267150267280815E-03
Asteroid physical parameters (km, seconds, rotational period in hours):        
   GM= n.a.                RAD= 20.679             ROTPER= 20.39               
   H= 10.68                G= .150                 B-V= n.a.                   
                           ALBEDO= .087            STYP= n.a.                  
*******************************************************************************
JDTDB
   X     Y     Z
   VX    VY    VZ
*******************************************************************************
$$SOE
2460168.500000000 = A.D. 2023-Aug-12 00:00:00.0000 TDB 
 X = 2.658091442328109E+08 Y = 3.619876718941094E+08 Z = 7.250619038913085E+07
 VX=-1.390687330020833E+01 VY= 8.986434113050812E+00 VZ=-1.876495074661197E+00
$$EOE
*******************************************************************************
 
TIME

  Barycentric Dynamical Time ("TDB" or T_eph) output was requested. This
continuous coordinate time is equivalent to the relativistic proper time
of a clock at rest in a reference frame co-moving with the solar system
barycenter but outside the system's gravity well. It is the independent
variable in the solar system relativistic equations of motion.

  TDB runs at a uniform rate of one SI second per second and is independent
of irregularities in Earth's rotation.
 
CALENDAR SYSTEM

  Mixed calendar mode was active such that calendar dates after AD 1582-Oct-15
(if any) are in the modern Gregorian system. Dates prior to 1582-Oct-5 (if any)
are in the Julian calendar system, which is automatically extended for dates
prior to its adoption on 45-Jan-1 BC.  The Julian calendar is useful for
matching historical dates. The Gregorian calendar more accurately corresponds
to the Earth's orbital motion and seasons. A "Gregorian-only" calendar mode is
available if such physical events are the primary interest.

REFERENCE FRAME AND COORDINATES

  Ecliptic at the standard reference epoch

    Reference epoch: J2000.0
    X-Y plane: adopted Earth orbital plane at the reference epoch
               Note: IAU76 obliquity of 84381.448 arcseconds wrt ICRF X-Y plane
    X-axis   : ICRF
    Z-axis   : perpendicular to the X-Y plane in the directional (+ or -) sense
               of Earth's north pole at the reference epoch.

  Symbol meaning:

    JDTDB    Julian Day Number, Barycentric Dynamical Time
      X      X-component of position vector (km)
      Y      Y-component of position vector (km)
      Z      Z-component of position vector (km)
      VX     X-component of velocity vector (km/sec)                           
      VY     Y-component of velocity vector (km/sec)                           
      VZ     Z-component of velocity vector (km/sec)                           

ABERRATIONS AND CORRECTIONS

 Geometric state vectors have NO corrections or aberrations applied.

Computations by ...

    Solar System Dynamics Group, Horizons On-Line Ephemeris System
    4800 Oak Grove Drive, Jet Propulsion Laboratory
    Pasadena, CA  91109   USA

    General site: https://ssd.jpl.nasa.gov/
    Mailing list: https://ssd.jpl.nasa.gov/email_list.html
    System news : https://ssd.jpl.nasa.gov/horizons/news.html
    User Guide  : https://ssd.jpl.nasa.gov/horizons/manual.html
    Connect     : browser        https://ssd.jpl.nasa.gov/horizons/app.html#/x
                  API            https://ssd-api.jpl.nasa.gov/doc/horizons.html
                  command-line   telnet ssd.jpl.nasa.gov 6775
                  e-mail/batch   https://ssd.jpl.nasa.gov/ftp/ssd/hrzn_batch.txt
                  scripts        https://ssd.jpl.nasa.gov/ftp/ssd/SCRIPTS
    Author      : Jon.D.Giorgini@jpl.nasa.gov
*******************************************************************************
